OBJECT_NAME,OBJECT_ID,EPOCH,MEAN_MOTION,ECCENTRICITY,INCLINATION,RA_OF_ASC_NODE,ARG_OF_PERICENTER,MEAN_ANOMALY,EPHEMERIS_TYPE,CLASSIFICATION_TYPE,NORAD_CAT_ID,ELEMENT_SET_NO,REV_AT_EPOCH,BSTAR,MEAN_MOTION_DOT,MEAN_MOTION_DDOT
STARLINK-30775,2023-162X,2023-11-09T14:00:01.000224,15.71932499,.0001683,42.9991,88.0062,284.5530,7.4059,0,U,58139,999,418,-.14012E-1,-.1666107E-1,0
STARLINK-30780,2023-162Y,2023-11-09T14:00:01.000224,15.71819215,.0001161,42.9991,88.0027,272.4684,21.0696,0,U,58140,999,418,-.12943E-1,-.1545634E-1,0
YAOGAN-39 04A,2023-163A,2023-11-09T03:22:25.522752,15.22427156,.0005534,34.9940,205.7700,32.7376,327.3680,0,U,58141,999,249,.36964E-3,.8731E-4,0
YAOGAN-39 04B,2023-163C,2023-11-07T20:01:10.074432,15.22490341,.0012678,34.9988,213.9023,40.2617,20.0447,0,U,58143,999,228,.99836E-3,.23779E-3,0
YAOGAN-39 04C,2023-163E,2023-11-09T01:35:41.267904,15.21846488,.0009573,34.9943,206.1086,33.4528,326.6790,0,U,58145,999,248,.21326E-2,.50009E-3,0
SHENZHOU-17 (SZ-17),2023-164A,2023-11-08T14:50:50.261856,15.61346932,.000333,41.4726,356.5787,83.3340,276.7878,0,U,58146,999,14441,.52969E-3,.46338E-3,0
COSMOS 2570,2023-165A,2023-11-09T13:40:26.850144,13.96672731,.0006891,67.1484,79.8888,265.6824,94.3473,0,U,58148,999,188,.19936E-3,.201E-5,0
STARLINK-30802,2023-166A,2023-11-09T14:00:01.000224,15.80139429,.0000816,53.0570,205.5396,81.4087,133.2042,0,U,58150,999,301,-.45436E-2,-.792176E-2,0
STARLINK-30834,2023-166B,2023-11-09T14:00:01.000224,15.80140803,.0000806,53.0568,205.5380,85.2452,130.0656,0,U,58151,999,301,-.45537E-2,-.79383E-2,0
STARLINK-30833,2023-166C,2023-11-09T14:00:01.000224,15.80132936,.0000736,53.0571,205.5345,87.3386,129.6874,0,U,58152,999,301,-.45918E-2,-.799614E-2,0
STARLINK-30831,2023-166D,2023-11-09T14:00:01.000224,15.80112707,.0000752,53.0570,205.5317,88.0048,130.2706,0,U,58153,999,301,-.46294E-2,-.80491E-2,0
STARLINK-30797,2023-166E,2023-11-09T14:00:01.000224,15.80149813,.0000743,53.0567,205.5366,87.5995,128.2359,0,U,58154,999,279,-.4558E-2,-.794801E-2,0
STARLINK-30804,2023-166F,2023-11-09T14:00:01.000224,15.80122633,.0000673,53.0567,205.5305,104.8087,113.9970,0,U,58155,999,301,-.46438E-2,-.807513E-2,0
STARLINK-30784,2023-166G,2023-11-09T14:00:01.000224,15.80109207,.0000753,53.0566,205.5266,87.0594,133.5231,0,U,58156,999,285,-.46708E-2,-.811358E-2,0
STARLINK-30803,2023-166H,2023-11-09T14:00:01.000224,15.80114331,.0000828,53.0565,205.5283,80.2758,139.4736,0,U,58157,999,279,-.46577E-2,-.809476E-2,0
STARLINK-30829,2023-166J,2023-11-09T14:00:01.000224,15.80084069,.0000731,53.0565,205.5237,91.9228,130.0215,0,U,58158,999,301,-.47176E-2,-.817898E-2,0
STARLINK-30788,2023-166K,2023-11-09T14:00:01.000224,15.80086604,.000071,53.0565,205.5224,92.6427,129.9858,0,U,58159,999,285,-.47293E-2,-.819828E-2,0
STARLINK-30779,2023-166L,2023-11-09T14:00:01.000224,15.80088947,.0000681,53.0564,205.5207,92.5161,130.8233,0,U,58160,999,301,-.47491E-2,-.823029E-2,0
STARLINK-30773,2023-166M,2023-11-09T14:00:01.000224,15.80068001,.0000961,53.0563,205.5182,84.8998,139.6469,0,U,58161,999,301,-.47735E-2,-.82623E-2,0
STARLINK-30816,2023-166N,2023-11-09T14:00:01.000224,15.80036943,.000074,53.0564,205.5152,88.0404,137.9742,0,U,58162,999,301,-.48336E-2,-.834542E-2,0
STARLINK-30763,2023-166P,2023-11-09T14:00:01.000224,15.92480240,.0000672,53.0559,205.1070,91.2339,331.7279,0,U,58163,999,301,-.28183E-2,-.983058E-2,.29809E-3
STARLINK-30815,2023-166Q,2023-11-09T14:00:01.000224,15.80026745,.0000718,53.0563,205.5130,85.5318,141.4527,0,U,58164,999,301,-.48577E-2,-.837962E-2,0
STARLINK-30814,2023-166R,2023-11-09T14:00:01.000224,15.80095750,.0001098,53.0565,205.5030,118.9240,112.8631,0,U,58165,999,301,-.49499E-2,-.854983E-2,0
STARLINK-30789,2023-166S,2023-11-09T14:00:01.000224,15.80017304,.000088,53.0562,205.5094,84.9408,143.7039,0,U,58166,999,301,-.48918E-2,-.843021E-2,0
STARLINK-30811,2023-166T,2023-11-09T14:00:01.000224,15.79979977,.0000742,53.0561,205.5046,90.4202,140.5058,0,U,58167,999,285,-.49648E-2,-.853065E-2,0
STARLINK-30812,2023-166U,2023-11-09T14:00:01.000224,15.80004477,.0000729,53.0562,205.5073,88.0471,141.6317,0,U,58168,999,285,-.49278E-2,-.848156E-2,0
STARLINK-30771,2023-166V,2023-11-09T14:00:01.000224,15.79953283,.0000833,53.0562,205.5006,85.6151,147.3446,0,U,58169,999,301,-.50291E-2,-.862146E-2,0
