STARLINK-30775          
1 58139U 23162X   23313.58334491 -.01666107  00000+0 -14012-1 0  9996
2 58139  42.9991  88.0062 0001683 284.5530   7.4059 15.71932499  4189
STARLINK-30780          
1 58140U 23162Y   23313.58334491 -.01545634  00000+0 -12943-1 0  9990
2 58140  42.9991  88.0027 0001161 272.4684  21.0696 15.71819215  4188
YAOGAN-39 04A           
1 58141U 23163A   23313.14057318  .00008731  00000+0  36964-3 0  9994
2 58141  34.9940 205.7700 0005534  32.7376 327.3680 15.22427156  2495
YAOGAN-39 04B           
1 58143U 23163C   23311.83414438  .00023779  00000+0  99836-3 0  9996
2 58143  34.9988 213.9023 0012678  40.2617  20.0447 15.22490341  2288
YAOGAN-39 04C           
1 58145U 23163E   23313.06644986  .00050009  00000+0  21326-2 0  9992
2 58145  34.9943 206.1086 0009573  33.4528 326.6790 15.21846488  2483
SHENZHOU-17 (SZ-17)     
1 58146U 23164A   23312.61863729  .00046338  00000+0  52969-3 0  9990
2 58146  41.4726 356.5787 0003330  83.3340 276.7878 15.61346932144410
COSMOS 2570             
1 58148U 23165A   23313.56975521  .00000201  00000+0  19936-3 0  9998
2 58148  67.1484  79.8888 0006891 265.6824  94.3473 13.96672731  1885
STARLINK-30802          
1 58150U 23166A   23313.58334491 -.00792176  00000+0 -45436-2 0  9993
2 58150  53.0570 205.5396 0000816  81.4087 133.2042 15.80139429  3015
STARLINK-30834          
1 58151U 23166B   23313.58334491 -.00793830  00000+0 -45537-2 0  9994
2 58151  53.0568 205.5380 0000806  85.2452 130.0656 15.80140803  3017
STARLINK-30833          
1 58152U 23166C   23313.58334491 -.00799614  00000+0 -45918-2 0  9994
2 58152  53.0571 205.5345 0000736  87.3386 129.6874 15.80132936  3018
STARLINK-30831          
1 58153U 23166D   23313.58334491 -.00804910  00000+0 -46294-2 0  9999
2 58153  53.0570 205.5317 0000752  88.0048 130.2706 15.80112707  3014
STARLINK-30797          
1 58154U 23166E   23313.58334491 -.00794801  00000+0 -45580-2 0  9994
2 58154  53.0567 205.5366 0000743  87.5995 128.2359 15.80149813  2793
STARLINK-30804          
1 58155U 23166F   23313.58334491 -.00807513  00000+0 -46438-2 0  9993
2 58155  53.0567 205.5305 0000673 104.8087 113.9970 15.80122633  3011
STARLINK-30784          
1 58156U 23166G   23313.58334491 -.00811358  00000+0 -46708-2 0  9996
2 58156  53.0566 205.5266 0000753  87.0594 133.5231 15.80109207  2852
STARLINK-30803          
1 58157U 23166H   23313.58334491 -.00809476  00000+0 -46577-2 0  9999
2 58157  53.0565 205.5283 0000828  80.2758 139.4736 15.80114331  2793
STARLINK-30829          
1 58158U 23166J   23313.58334491 -.00817898  00000+0 -47176-2 0  9993
2 58158  53.0565 205.5237 0000731  91.9228 130.0215 15.80084069  3016
STARLINK-30788          
1 58159U 23166K   23313.58334491 -.00819828  00000+0 -47293-2 0  9999
2 58159  53.0565 205.5224 0000710  92.6427 129.9858 15.80086604  2857
STARLINK-30779          
1 58160U 23166L   23313.58334491 -.00823029  00000+0 -47491-2 0  9999
2 58160  53.0564 205.5207 0000681  92.5161 130.8233 15.80088947  3019
STARLINK-30773          
1 58161U 23166M   23313.58334491 -.00826230  00000+0 -47735-2 0  9998
2 58161  53.0563 205.5182 0000961  84.8998 139.6469 15.80068001  3011
STARLINK-30816          
1 58162U 23166N   23313.58334491 -.00834542  00000+0 -48336-2 0  9992
2 58162  53.0564 205.5152 0000740  88.0404 137.9742 15.80036943  3018
STARLINK-30763          
1 58163U 23166P   23313.58334491 -.00983058  29809-3 -28183-2 0  9990
2 58163  53.0559 205.1070 0000672  91.2339 331.7279 15.92480240  3010
STARLINK-30815          
1 58164U 23166Q   23313.58334491 -.00837962  00000+0 -48577-2 0  9990
2 58164  53.0563 205.5130 0000718  85.5318 141.4527 15.80026745  3016
STARLINK-30814          
1 58165U 23166R   23313.58334491 -.00854983  00000+0 -49499-2 0  9997
2 58165  53.0565 205.5030 0001098 118.9240 112.8631 15.80095750  3015
STARLINK-30789          
1 58166U 23166S   23313.58334491 -.00843021  00000+0 -48918-2 0  9994
2 58166  53.0562 205.5094 0000880  84.9408 143.7039 15.80017304  3013
STARLINK-30811          
1 58167U 23166T   23313.58334491 -.00853065  00000+0 -49648-2 0  9995
2 58167  53.0561 205.5046 0000742  90.4202 140.5058 15.79979977  2859
STARLINK-30812          
1 58168U 23166U   23313.58334491 -.00848156  00000+0 -49278-2 0  9990
2 58168  53.0562 205.5073 0000729  88.0471 141.6317 15.80004477  2853
STARLINK-30771          
1 58169U 23166V   23313.58334491 -.00862146  00000+0 -50291-2 0  9993
2 58169  53.0562 205.5006 0000833  85.6151 147.3446 15.79953283  3015
